1 37442U 99025EHL 13057.56362133  .00003124  00000-0  11475-2 0  9990
2 37442 099.1444 181.3040 0054844 048.4320 312.1065 14.32644178185930
